IRIDIUM 106             
1 41917U 17003A   23301.56900141  .00000139  00000+0  42604-4 0  9990
2 41917  86.3943 130.8511 0002042  94.6743 265.4686 14.34217654355239
IRIDIUM 103             
1 41918U 17003B   23301.55632850  .00000139  00000+0  42637-4 0  9995
2 41918  86.3944 130.7591 0001776  86.0001 274.1398 14.34216615355269
IRIDIUM 109             
1 41919U 17003C   23301.56267747  .00000146  00000+0  44923-4 0  9994
2 41919  86.3944 130.7999 0002143  82.2013 277.9426 14.34216523355241
IRIDIUM 102             
1 41920U 17003D   23301.60072692  .00000148  00000+0  45885-4 0  9994
2 41920  86.3943 130.7281 0002256  84.5422 275.6031 14.34212363355313
IRIDIUM 105             
1 41921U 17003E   23301.50162711  .00000169  00000+0  53315-4 0  9996
2 41921  86.3926  99.1774 0002020  91.6111 268.5316 14.34209746357155
IRIDIUM 104             
1 41922U 17003F   23301.54364087  .00000144  00000+0  44256-4 0  9998
2 41922  86.3944 130.7800 0001953  83.5125 276.6293 14.34215855355292
IRIDIUM 114             
1 41923U 17003G   23301.54997654  .00000144  00000+0  44532-4 0  9998
2 41923  86.3944 130.7639 0002232  97.2636 262.8814 14.34218251355270
IRIDIUM 108             
1 41924U 17003H   23301.50849874  .00000155  00000+0  48134-4 0  9999
2 41924  86.3921  99.1143 0001955  99.1010 261.0407 14.34218375357124
